[{"OBJECT_NAME":"STARLINK-6176","OBJECT_ID":"2023-061Q","EPOCH":"2026-03-09T22:00:01.999584","MEAN_MOTION":15.11969207,"ECCENTRICITY":0.00020139,"INCLINATION":42.9997,"RA_OF_ASC_NODE":195.989,"ARG_OF_PERICENTER":263.5887,"MEAN_ANOMALY":20.4888,"EPHEMERIS_TYPE":0,"CLASSIFICATION_TYPE":"U","NORAD_CAT_ID":56388,"ELEMENT_SET_NO":999,"REV_AT_EPOCH":577,"BSTAR":0.004141035,"MEAN_MOTION_DOT":0.00072813,"MEAN_MOTION_DDOT":0},{"OBJECT_NAME":"PIESAT-2 11","OBJECT_ID":"2024-241C","EPOCH":"2026-03-07T12:28:16.019904","MEAN_MOTION":15.13471753,"ECCENTRICITY":0.00017821,"INCLINATION":97.5216,"RA_OF_ASC_NODE":15.2882,"ARG_OF_PERICENTER":92.1609,"MEAN_ANOMALY":267.9826,"EPHEMERIS_TYPE":0,"CLASSIFICATION_TYPE":"U","NORAD_CAT_ID":62335,"ELEMENT_SET_NO":999,"REV_AT_EPOCH":6743,"BSTAR":0.00087235148,"MEAN_MOTION_DOT":0.00015561,"MEAN_MOTION_DDOT":0}]
